{
  "type": "FeatureCollection",
  "features": [
    {
      "type": "Feature",
      "properties": {
        "norad_id": 24946,
        "name": "IRIDIUM 33",
        "group": "iridium-33-debris",
        "lat": 37.014089726191116,
        "lon": -119.95191697095855,
        "alt_km": 766.4880834569149,
        "timestamp": "2025-12-25T16:53:15.048452+00:00",
        "meta_object_name": "IRIDIUM 33",
        "meta_object_id": "1997-051C",
        "meta_epoch": "2025-12-25T06:11:00.134016",
        "meta_mean_motion": 14.35045823,
        "meta_eccentricity": 0.00085083,
        "meta_inclination": 86.3857,
        "meta_ra_of_asc_node": 62.9667,
        "meta_arg_of_pericenter": 159.9968,
        "meta_mean_anomaly": 200.1564,
        "meta_ephemeris_type": 0,
        "meta_classification_type": "U",
        "meta_norad_cat_id": 24946,
        "meta_element_set_no": 999,
        "meta_rev_at_epoch": 48014,
        "meta_bstar": 0.0001152438,
        "meta_mean_motion_dot": 3.48e-06,
        "meta_mean_motion_ddot": 0,
        "tle_line1": "1 24946U 97051C   25359.25764044  .00000348  00000+0  11524-3 0  9993",
        "tle_line2": "2 24946  86.3857  62.9667 0008508 159.9968 200.1564 14.35045823480148"
      },
      "geometry": {
        "type": "Point",
        "coordinates": [
          -119.95191697095855,
          37.014089726191116
        ]
      }
    },
    {
      "type": "Feature",
      "properties": {
        "norad_id": 33773,
        "name": "IRIDIUM 33 DEB",
        "group": "iridium-33-debris",
        "lat": 56.42652024116403,
        "lon": -130.34764470173786,
        "alt_km": 733.1957824424617,
        "timestamp": "2025-12-25T16:53:15.048483+00:00",
        "meta_object_name": "IRIDIUM 33 DEB",
        "meta_object_id": "1997-051L",
        "meta_epoch": "2025-12-25T03:00:26.345088",
        "meta_mean_motion": 14.43282119,
        "meta_eccentricity": 0.00132738,
        "meta_inclination": 86.3998,
        "meta_ra_of_asc_node": 55.3405,
        "meta_arg_of_pericenter": 110.8698,
        "meta_mean_anomaly": 249.3926,
        "meta_ephemeris_type": 0,
        "meta_classification_type": "U",
        "meta_norad_cat_id": 33773,
        "meta_element_set_no": 999,
        "meta_rev_at_epoch": 88526,
        "meta_bstar": 0.00029112934,
        "meta_mean_motion_dot": 1.001e-05,
        "meta_mean_motion_ddot": 0,
        "tle_line1": "1 33773U 97051L   25359.12530492  .00001001  00000+0  29113-3 0  9995",
        "tle_line2": "2 33773  86.3998  55.3405 0013273 110.8698 249.3926 14.43282119885268"
      },
      "geometry": {
        "type": "Point",
        "coordinates": [
          -130.34764470173786,
          56.42652024116403
        ]
      }
    },
    {
      "type": "Feature",
      "properties": {
        "norad_id": 33775,
        "name": "IRIDIUM 33 DEB",
        "group": "iridium-33-debris",
        "lat": 56.260529341416685,
        "lon": -141.44712871680773,
        "alt_km": 737.4525288280938,
        "timestamp": "2025-12-25T16:53:15.048499+00:00",
        "meta_object_name": "IRIDIUM 33 DEB",
        "meta_object_id": "1997-051N",
        "meta_epoch": "2025-12-24T21:08:33.647136",
        "meta_mean_motion": 14.41493494,
        "meta_eccentricity": 0.0015301,
        "meta_inclination": 86.3624,
        "meta_ra_of_asc_node": 44.3695,
        "meta_arg_of_pericenter": 118.5758,
        "meta_mean_anomaly": 58.3115,
        "meta_ephemeris_type": 0,
        "meta_classification_type": "U",
        "meta_norad_cat_id": 33775,
        "meta_element_set_no": 999,
        "meta_rev_at_epoch": 88315,
        "meta_bstar": 0.00031635,
        "meta_mean_motion_dot": 1.048e-05,
        "meta_mean_motion_ddot": 0,
        "tle_line1": "1 33775U 97051N   25358.88094499  .00001048  00000+0  31635-3 0  9994",
        "tle_line2": "2 33775  86.3624  44.3695 0015301 118.5758  58.3115 14.41493494883153"
      },
      "geometry": {
        "type": "Point",
        "coordinates": [
          -141.44712871680773,
          56.260529341416685
        ]
      }
    },
    {
      "type": "Feature",
      "properties": {
        "norad_id": 33776,
        "name": "IRIDIUM 33 DEB",
        "group": "iridium-33-debris",
        "lat": -22.56987680130854,
        "lon": -103.17027656476485,
        "alt_km": 763.0000742024613,
        "timestamp": "2025-12-25T16:53:15.048512+00:00",
        "meta_object_name": "IRIDIUM 33 DEB",
        "meta_object_id": "1997-051P",
        "meta_epoch": "2025-12-25T06:12:42.675264",
        "meta_mean_motion": 14.38256021,
        "meta_eccentricity": 0.00157359,
        "meta_inclination": 86.4031,
        "meta_ra_of_asc_node": 75.5184,
        "meta_arg_of_pericenter": 150.7265,
        "meta_mean_anomaly": 269.942,
        "meta_ephemeris_type": 0,
        "meta_classification_type": "U",
        "meta_norad_cat_id": 33776,
        "meta_element_set_no": 999,
        "meta_rev_at_epoch": 88262,
        "meta_bstar": 0.00026458687,
        "meta_mean_motion_dot": 8.25e-06,
        "meta_mean_motion_ddot": 0,
        "tle_line1": "1 33776U 97051P   25359.25882726  .00000825  00000+0  26459-3 0  9995",
        "tle_line2": "2 33776  86.4031  75.5184 0015735 150.7265 269.9420 14.38256021882627"
      },
      "geometry": {
        "type": "Point",
        "coordinates": [
          -103.17027656476485,
          -22.56987680130854
        ]
      }
    },
    {
      "type": "Feature",
      "properties": {
        "norad_id": 33777,
        "name": "IRIDIUM 33 DEB",
        "group": "iridium-33-debris",
        "lat": 80.65851656693637,
        "lon": 52.2146405215541,
        "alt_km": 701.5711109683516,
        "timestamp": "2025-12-25T16:53:15.048525+00:00",
        "meta_object_name": "IRIDIUM 33 DEB",
        "meta_object_id": "1997-051Q",
        "meta_epoch": "2025-12-25T03:18:59.715360",
        "meta_mean_motion": 14.55696956,
        "meta_eccentricity": 0.00063174,
        "meta_inclination": 86.3773,
        "meta_ra_of_asc_node": 29.8087,
        "meta_arg_of_pericenter": 197.114,
        "meta_mean_anomaly": 162.9856,
        "meta_ephemeris_type": 0,
        "meta_classification_type": "U",
        "meta_norad_cat_id": 33777,
        "meta_element_set_no": 999,
        "meta_rev_at_epoch": 88714,
        "meta_bstar": 0.00084426608,
        "meta_mean_motion_dot": 3.71e-05,
        "meta_mean_motion_ddot": 0,
        "tle_line1": "1 33777U 97051Q   25359.13819115  .00003710  00000+0  84427-3 0  9990",
        "tle_line2": "2 33777  86.3773  29.8087 0006317 197.1140 162.9856 14.55696956887148"
      },
      "geometry": {
        "type": "Point",
        "coordinates": [
          52.2146405215541,
          80.65851656693637
        ]
      }
    },
    {
      "type": "Feature",
      "properties": {
        "norad_id": 33850,
        "name": "IRIDIUM 33 DEB",
        "group": "iridium-33-debris",
        "lat": 43.71480522634437,
        "lon": -158.90322686852642,
        "alt_km": 738.5311080026668,
        "timestamp": "2025-12-25T16:53:15.048537+00:00",
        "meta_object_name": "IRIDIUM 33 DEB",
        "meta_object_id": "1997-051T",
        "meta_epoch": "2025-12-25T03:13:46.983648",
        "meta_mean_motion": 14.4217692,
        "meta_eccentricity": 0.00132777,
        "meta_inclination": 86.3408,
        "meta_ra_of_asc_node": 24.8493,
        "meta_arg_of_pericenter": 124.2339,
        "meta_mean_anomaly": 299.1573,
        "meta_ephemeris_type": 0,
        "meta_classification_type": "U",
        "meta_norad_cat_id": 33850,
        "meta_element_set_no": 999,
        "meta_rev_at_epoch": 88331,
        "meta_bstar": 0.0004155285,
        "meta_mean_motion_dot": 1.388e-05,
        "meta_mean_motion_ddot": 0,
        "tle_line1": "1 33850U 97051T   25359.13457157  .00001388  00000+0  41553-3 0  9998",
        "tle_line2": "2 33850  86.3408  24.8493 0013277 124.2339 299.1573 14.42176920883319"
      },
      "geometry": {
        "type": "Point",
        "coordinates": [
          -158.90322686852642,
          43.71480522634437
        ]
      }
    },
    {
      "type": "Feature",
      "properties": {
        "norad_id": 33853,
        "name": "IRIDIUM 33 DEB",
        "group": "iridium-33-debris",
        "lat": -45.5764359928318,
        "lon": -19.96811074514762,
        "alt_km": 973.3372123535364,
        "timestamp": "2025-12-25T16:53:15.048550+00:00",
        "meta_object_name": "IRIDIUM 33 DEB",
        "meta_object_id": "1997-051W",
        "meta_epoch": "2025-12-24T22:19:16.041792",
        "meta_mean_motion": 13.99120379,
        "meta_eccentricity": 0.0207734,
        "meta_inclination": 86.0001,
        "meta_ra_of_asc_node": 344.4648,
        "meta_arg_of_pericenter": 198.227,
        "meta_mean_anomaly": 179.9108,
        "meta_ephemeris_type": 0,
        "meta_classification_type": "U",
        "meta_norad_cat_id": 33853,
        "meta_element_set_no": 999,
        "meta_rev_at_epoch": 85516,
        "meta_bstar": 0.0011909,
        "meta_mean_motion_dot": 2.092e-05,
        "meta_mean_motion_ddot": 0,
        "tle_line1": "1 33853U 97051W   25358.93004678  .00002092  00000+0  11909-2 0  9998",
        "tle_line2": "2 33853  86.0001 344.4648 0207734 198.2270 179.9108 13.99120379855168"
      },
      "geometry": {
        "type": "Point",
        "coordinates": [
          -19.96811074514762,
          -45.5764359928318
        ]
      }
    }
  ]
}